{"type": "FeatureCollection", "features": [ {"type": "Feature", "properties": {"norad_id": 34375, "name": "IRIDIUM 33 DEB", "group": "iridium-33-debris", "lat": -71.9741407783473, "lon": 169.34401510679194, "alt_km": 914.1806449501819, "timestamp": "2025-12-18T10:51:26.195753+00:00", "meta": {"OBJECT_NAME": "IRIDIUM 33 DEB", "OBJECT_ID": "1997-051FT", "EPOCH": "2025-12-17T13:26:35.352096", "MEAN_MOTION": 14.18001231, "ECCENTRICITY": 0.01035674, "INCLINATION": 86.4323, "RA_OF_ASC_NODE": 180.7567, "ARG_OF_PERICENTER": 111.645, "MEAN_ANOMALY": 304.0989, "EPHEMERIS_TYPE": 0, "CLASSIFICATION_TYPE": "U", "NORAD_CAT_ID": 34375, "ELEMENT_SET_NO": 999, "REV_AT_EPOCH": 86780, "BSTAR": 0.00036037752, "MEAN_MOTION_DOT": 7.98e-06, "MEAN_MOTION_DDOT": 0}, "tle": {"line1": "1 34375U 97051FT  25351.56013139  .00000798  00000+0  36038-3 0  9994", "line2": "2 34375  86.4323 180.7567 0103567 111.6450 304.0989 14.18001231867807"}}, "geometry": {"type": "Point", "coordinates": [169.34401510679194, -71.9741407783473]}}, {"type": "Feature", "properties": {"norad_id": 34376, "name": "IRIDIUM 33 DEB", "group": "iridium-33-debris", "lat": 43.65605268361507, "lon": -179.56963875049598, "alt_km": 661.8790758515916, "timestamp": "2025-12-18T10:51:26.195764+00:00", "meta": {"OBJECT_NAME": "IRIDIUM 33 DEB", "OBJECT_ID": "1997-051FU", "EPOCH": "2025-12-17T11:15:00.720576", "MEAN_MOTION": 14.6263273, "ECCENTRICITY": 0.00277539, "INCLINATION": 86.2981, "RA_OF_ASC_NODE": 4.4142, "ARG_OF_PERICENTER": 150.9794, "MEAN_ANOMALY": 209.2968, "EPHEMERIS_TYPE": 0, "CLASSIFICATION_TYPE": "U", "NORAD_CAT_ID": 34376, "ELEMENT_SET_NO": 999, "REV_AT_EPOCH": 88076, "BSTAR": 0.0010721746, "MEAN_MOTION_DOT": 5.502e-05, "MEAN_MOTION_DDOT": 0}, "tle": {"line1": "1 34376U 97051FU  25351.46875834  .00005502  00000+0  10722-2 0  9991", "line2": "2 34376  86.2981   4.4142 0027753 150.9794 209.2968 14.62632730880762"}}, "geometry": {"type": "Point", "coordinates": [-179.56963875049598, 43.65605268361507]}}, {"type": "Feature", "properties": {"norad_id": 34486, "name": "IRIDIUM 33 DEB", "group": "iridium-33-debris", "lat": -42.9533856449492, "lon": 6.02135903324565, "alt_km": 593.0830125730845, "timestamp": "2025-12-18T10:51:26.195774+00:00", "meta": {"OBJECT_NAME": "IRIDIUM 33 DEB", "OBJECT_ID": "1997-051GB", "EPOCH": "2025-12-17T01:34:32.789856", "MEAN_MOTION": 14.95995352, "ECCENTRICITY": 0.00138977, "INCLINATION": 86.393, "RA_OF_ASC_NODE": 10.0283, "ARG_OF_PERICENTER": 100.1337, "MEAN_ANOMALY": 313.5239, "EPHEMERIS_TYPE": 0, "CLASSIFICATION_TYPE": "U", "NORAD_CAT_ID": 34486, "ELEMENT_SET_NO": 999, "REV_AT_EPOCH": 89051, "BSTAR": 0.0017072639, "MEAN_MOTION_DOT": 0.00019234, "MEAN_MOTION_DDOT": 0}, "tle": {"line1": "1 34486U 97051GB  25351.06565729  .00019234  00000+0  17073-2 0  9991", "line2": "2 34486  86.3930  10.0283 0013897 100.1337 313.5239 14.95995352890514"}}, "geometry": {"type": "Point", "coordinates": [6.02135903324565, -42.9533856449492]}}, {"type": "Feature", "properties": {"norad_id": 34487, "name": "IRIDIUM 33 DEB", "group": "iridium-33-debris", "lat": -30.3257186609959, "lon": 7.773958106771254, "alt_km": 772.1272966887891, "timestamp": "2025-12-18T10:51:26.195785+00:00", "meta": {"OBJECT_NAME": "IRIDIUM 33 DEB", "OBJECT_ID": "1997-051GC", "EPOCH": "2025-12-17T08:26:40.670304", "MEAN_MOTION": 14.43222071, "ECCENTRICITY": 0.00330822, "INCLINATION": 86.3432, "RA_OF_ASC_NODE": 10.3915, "ARG_OF_PERICENTER": 114.0104, "MEAN_ANOMALY": 261.6876, "EPHEMERIS_TYPE": 0, "CLASSIFICATION_TYPE": "U", "NORAD_CAT_ID": 34487, "ELEMENT_SET_NO": 999, "REV_AT_EPOCH": 88315, "BSTAR": 0.00016017609, "MEAN_MOTION_DOT": 5.62e-06, "MEAN_MOTION_DDOT": 0}, "tle": {"line1": "1 34487U 97051GC  25351.35185961  .00000562  00000+0  16018-3 0  9993", "line2": "2 34487  86.3432  10.3915 0033082 114.0104 261.6876 14.43222071883157"}}, "geometry": {"type": "Point", "coordinates": [7.773958106771254, -30.3257186609959]}}, {"type": "Feature", "properties": {"norad_id": 34488, "name": "IRIDIUM 33 DEB", "group": "iridium-33-debris", "lat": -76.49793121717161, "lon": -72.55666760646788, "alt_km": 484.5011919340768, "timestamp": "2025-12-18T10:51:26.195795+00:00", "meta": {"OBJECT_NAME": "IRIDIUM 33 DEB", "OBJECT_ID": "1997-051GD", "EPOCH": "2025-12-17T21:04:21.136224", "MEAN_MOTION": 15.3067143, "ECCENTRICITY": 0.00116454, "INCLINATION": 86.3226, "RA_OF_ASC_NODE": 303.2651, "ARG_OF_PERICENTER": 42.4778, "MEAN_ANOMALY": 317.737, "EPHEMERIS_TYPE": 0, "CLASSIFICATION_TYPE": "U", "NORAD_CAT_ID": 34488, "ELEMENT_SET_NO": 999, "REV_AT_EPOCH": 89318, "BSTAR": 0.0036556344, "MEAN_MOTION_DOT": 0.00109948, "MEAN_MOTION_DDOT": 0}, "tle": {"line1": "1 34488U 97051GD  25351.87802241  .00109948  00000+0  36556-2 0  9994", "line2": "2 34488  86.3226 303.2651 0011645  42.4778 317.7370 15.30671430893182"}}, "geometry": {"type": "Point", "coordinates": [-72.55666760646788, -76.49793121717161]}}, {"type": "Feature", "properties": {"norad_id": 34492, "name": "IRIDIUM 33 DEB", "group": "iridium-33-debris", "lat": 60.72445106456177, "lon": -21.360308946478433, "alt_km": 925.8467428029553, "timestamp": "2025-12-18T10:51:26.195806+00:00", "meta": {"OBJECT_NAME": "IRIDIUM 33 DEB", "OBJECT_ID": "1997-051GH", "EPOCH": "2025-12-17T10:01:30.958752", "MEAN_MOTION": 14.25820052, "ECCENTRICITY": 0.01887417, "INCLINATION": 86.4709, "RA_OF_ASC_NODE": 332.7379, "ARG_OF_PERICENTER": 222.99, "MEAN_ANOMALY": 291.1876, "EPHEMERIS_TYPE": 0, "CLASSIFICATION_TYPE": "U", "NORAD_CAT_ID": 34492, "ELEMENT_SET_NO": 999, "REV_AT_EPOCH": 85125, "BSTAR": 0.0026623829, "MEAN_MOTION_DOT": 7.653e-05, "MEAN_MOTION_DDOT": 0}, "tle": {"line1": "1 34492U 97051GH  25351.41771943  .00007653  00000+0  26624-2 0  9998", "line2": "2 34492  86.4709 332.7379 0188741 222.9900 291.1876 14.25820052851259"}}, "geometry": {"type": "Point", "coordinates": [-21.360308946478433, 60.72445106456177]}}, {"type": "Feature", "properties": {"norad_id": 34497, "name": "IRIDIUM 33 DEB", "group": "iridium-33-debris", "lat": -25.33320521646607, "lon": 48.194622336297925, "alt_km": 751.1931068410004, "timestamp": "2025-12-18T10:51:26.195816+00:00", "meta": {"OBJECT_NAME": "IRIDIUM 33 DEB", "OBJECT_ID": "1997-051GN", "EPOCH": "2025-12-17T15:30:05.778144", "MEAN_MOTION": 14.27467752, "ECCENTRICITY": 0.00784008, "INCLINATION": 86.2772, "RA_OF_ASC_NODE": 50.3054, "ARG_OF_PERICENTER": 323.5192, "MEAN_ANOMALY": 189.1471, "EPHEMERIS_TYPE": 0, "CLASSIFICATION_TYPE": "U", "NORAD_CAT_ID": 34497, "ELEMENT_SET_NO": 999, "REV_AT_EPOCH": 86953, "BSTAR": 0.00049729194, "MEAN_MOTION_DOT": 1.279e-05, "MEAN_MOTION_DDOT": 0}, "tle": {"line1": "1 34497U 97051GN  25351.64590021  .00001279  00000+0  49729-3 0  9994", "line2": "2 34497  86.2772  50.3054 0078400 323.5192 189.1471 14.27467752869539"}}, "geometry": {"type": "Point", "coordinates": [48.194622336297925, -25.33320521646607]}}, {"type": "Feature", "properties": {"norad_id": 34508, "name": "IRIDIUM 33 DEB", "group": "iridium-33-debris", "lat": -2.216053617384876, "lon": 100.08075248542227, "alt_km": 810.4314028223416, "timestamp": "2025-12-18T10:51:26.195827+00:00", "meta": {"OBJECT_NAME": "IRIDIUM 33 DEB", "OBJECT_ID": "1997-051GZ", "EPOCH": "2025-12-17T18:10:21.228960", "MEAN_MOTION": 14.38466145, "ECCENTRICITY": 0.00664596, "INCLINATION": 86.3706, "RA_OF_ASC_NODE": 100.5162, "ARG_OF_PERICENTER": 156.8278, "MEAN_ANOMALY": 203.5942, "EPHEMERIS_TYPE": 0, "CLASSIFICATION_TYPE": "U", "NORAD_CAT_ID": 34508, "ELEMENT_SET_NO": 999, "REV_AT_EPOCH": 87381, "BSTAR": 0.00095192127, "MEAN_MOTION_DOT": 3e-05, "MEAN_MOTION_DDOT": 0}, "tle": {"line1": "1 34508U 97051GZ  25351.75719015  .00003000  00000+0  95192-3 0  9994", "line2": "2 34508  86.3706 100.5162 0066459 156.8278 203.5942 14.38466145873818"}}, "geometry": {"type": "Point", "coordinates": [100.08075248542227, -2.216053617384876]}}, {"type": "Feature", "properties": {"norad_id": 34521, "name": "IRIDIUM 33 DEB", "group": "iridium-33-debris", "lat": -31.88066357219322, "lon": 25.776622288380523, "alt_km": 689.5234078000758, "timestamp": "2025-12-18T10:51:26.195837+00:00", "meta": {"OBJECT_NAME": "IRIDIUM 33 DEB", "OBJECT_ID": "1997-051HN", "EPOCH": "2025-12-17T20:14:00.326112", "MEAN_MOTION": 14.63409507, "ECCENTRICITY": 0.00021745, "INCLINATION": 86.3796, "RA_OF_ASC_NODE": 28.3017, "ARG_OF_PERICENTER": 190.3281, "MEAN_ANOMALY": 169.7887, "EPHEMERIS_TYPE": 0, "CLASSIFICATION_TYPE": "U", "NORAD_CAT_ID": 34521, "ELEMENT_SET_NO": 999, "REV_AT_EPOCH": 88547, "BSTAR": 0.00065322814, "MEAN_MOTION_DOT": 3.399e-05, "MEAN_MOTION_DDOT": 0}, "tle": {"line1": "1 34521U 97051HN  25351.84305933  .00003399  00000+0  65323-3 0  9993", "line2": "2 34521  86.3796  28.3017 0002174 190.3281 169.7887 14.63409507885472"}}, "geometry": {"type": "Point", "coordinates": [25.776622288380523, -31.88066357219322]}}, {"type": "Feature", "properties": {"norad_id": 34525, "name": "IRIDIUM 33 DEB", "group": "iridium-33-debris", "lat": 85.03605586096836, "lon": 91.32479590196925, "alt_km": 736.770074689809, "timestamp": "2025-12-18T10:51:26.195847+00:00", "meta": {"OBJECT_NAME": "IRIDIUM 33 DEB", "OBJECT_ID": "1997-051HS", "EPOCH": "2025-12-17T15:03:01.274112", "MEAN_MOTION": 14.4291718, "ECCENTRICITY": 0.00065505, "INCLINATION": 86.3725, "RA_OF_ASC_NODE": 44.7578, "ARG_OF_PERICENTER": 83.9317, "MEAN_ANOMALY": 38.4452, "EPHEMERIS_TYPE": 0, "CLASSIFICATION_TYPE": "U", "NORAD_CAT_ID": 34525, "ELEMENT_SET_NO": 999, "REV_AT_EPOCH": 88158, "BSTAR": 0.00028829346, "MEAN_MOTION_DOT": 9.83e-06, "MEAN_MOTION_DDOT": 0}, "tle": {"line1": "1 34525U 97051HS  25351.62709808  .00000983  00000+0  28829-3 0  9998", "line2": "2 34525  86.3725  44.7578 0006550  83.9317  38.4452 14.42917180881587"}}, "geometry": {"type": "Point", "coordinates": [91.32479590196925, 85.03605586096836]}}]}